{
  "58030": {
    "noradId": "58030",
    "tle": [
      "1 58030C 23156C   26027.48868056  .00003774  00000+0  12722-3 0   274",
      "2 58030  53.1577 269.7570 0001314  88.9735 331.5599 15.30182267    12"
    ]
  },
  "58031": {
    "noradId": "58031",
    "tle": [
      "1 58031C 23156D   26027.49284722  .00000526  00000+0  17738-4 0   273",
      "2 58031  53.1592 279.7504 0001351  87.9787 257.2350 15.30186956    13"
    ]
  },
  "58032": {
    "noradId": "58032",
    "tle": [
      "1 58032C 23156E   26027.49076389  .00013338  00000+0  44984-3 0   279",
      "2 58032  53.1572 269.8176 0001213  90.2643 306.9138 15.30157287    13"
    ]
  },
  "58033": {
    "noradId": "58033",
    "tle": [
      "1 58033C 23156F   26027.49215278  .00002752  00000+0  92763-4 0   279",
      "2 58033  53.1608 359.2549 0001259  86.9190 116.5721 15.30184430    14"
    ]
  },
  "58034": {
    "noradId": "58034",
    "tle": [
      "1 58034C 23156G   26027.49284722 -.00028911  00000+0 -97402-3 0   271",
      "2 58034  53.1570 269.8368 0001394  90.0386 306.9183 15.30233287    13"
    ]
  },
  "58035": {
    "noradId": "58035",
    "tle": [
      "1 58035C 23156H   26027.49423611  .00006389  00000+0  21537-3 0   273",
      "2 58035  53.1577 269.4599 0001200  89.0208 228.8213 15.30180103    14"
    ]
  },
  "58036": {
    "noradId": "58036",
    "tle": [
      "1 58036C 23156J   26027.49284722  .00012321  00000+0  41538-3 0   278",
      "2 58036  53.1582 269.5538 0001259 103.7447 159.9304 15.30170121    12"
    ]
  },
  "58037": {
    "noradId": "58037",
    "tle": [
      "1 58037C 23156K   26027.49354167  .00006376  00000+0  21491-3 0   279",
      "2 58037  53.1591 359.5565 0001271  94.5597 313.7399 15.30180648    19"
    ]
  },
  "58038": {
    "noradId": "58038",
    "tle": [
      "1 58038C 23156L   26027.49284722  .00004278  00000+0  14422-3 0   274",
      "2 58038  53.1587 266.8877 0001241  84.9286  89.2097 15.30180077    12"
    ]
  },
  "58039": {
    "noradId": "58039",
    "tle": [
      "1 58039C 23156M   26027.49493056  .00422750  00000+0  61908-2 0   276",
      "2 58039  53.1514   4.5477 0008250  88.4201 280.6562 15.54497233    14"
    ]
  },
  "58040": {
    "noradId": "58040",
    "tle": [
      "1 58040C 23156N   26027.48798611  .00004739  00000+0  15973-3 0   277",
      "2 58040  53.1590 359.5214 0001281  96.3071 322.0675 15.30183758    16"
    ]
  },
  "58041": {
    "noradId": "58041",
    "tle": [
      "1 58041C 23156P   26027.49076389  .00001867  00000+0  62936-4 0   271",
      "2 58041  53.1569 269.6010 0001048  88.9023 232.9172 15.30188381    11"
    ]
  },
  "58042": {
    "noradId": "58042",
    "tle": [
      "1 58042C 23156Q   26027.48798611  .00012784  00000+0  43114-3 0   276",
      "2 58042  53.1576 267.1369 0001256  96.7016 218.8890 15.30157987    18"
    ]
  },
  "58043": {
    "noradId": "58043",
    "tle": [
      "1 58043C 23156R   26027.49145833 -.00000601  00000+0 -20251-4 0   275",
      "2 58043  53.1568 269.8514 0001224  89.2100 294.2871 15.30187769    15"
    ]
  },
  "58044": {
    "noradId": "58044",
    "tle": [
      "1 58044C 23156S   26027.49493056  .00011404  00000+0  38438-3 0   275",
      "2 58044  53.1593 359.5581 0001486 109.1888 289.3337 15.30177641    10"
    ]
  },
  "58045": {
    "noradId": "58045",
    "tle": [
      "1 58045C 23156T   26027.49284722 -.00004113  00000+0 -13861-3 0   278",
      "2 58045  53.1572 192.7065 0000683  95.6417  70.2789 15.30198848    17"
    ]
  },
  "58046": {
    "noradId": "58046",
    "tle": [
      "1 58046C 23156U   26027.49423611  .00011662  00000+0  39307-3 0   279",
      "2 58046  53.1590 359.5521 0001240  98.3197 325.4196 15.30178640    18"
    ]
  },
  "58047": {
    "noradId": "58047",
    "tle": [
      "1 58047C 23156V   26027.49284722  .00009311  00000+0  31385-3 0   274",
      "2 58047  53.1609 359.8362 0001329  82.2138 182.6557 15.30177574    10"
    ]
  },
  "58048": {
    "noradId": "58048",
    "tle": [
      "1 58048C 23156W   26027.49354167  .00003279  00000+0  11050-3 0   270",
      "2 58048  53.1596 359.3923 0001293  91.2721  50.0695 15.30187716    12"
    ]
  },
  "58051": {
    "noradId": "58051",
    "tle": [
      "1 58051C 23158A   26027.49076389  .00004692  00000+0  34624-3 0   275",
      "2 58051  43.0025 254.4850 0001155 256.1172 354.1752 15.02524732    18"
    ]
  },
  "58052": {
    "noradId": "58052",
    "tle": [
      "1 58052C 23158B   26027.48868056  .00001189  00000+0  87750-4 0   272",
      "2 58052  43.0018 254.5855 0001259 266.9707 295.9746 15.02528012    15"
    ]
  },
  "58053": {
    "noradId": "58053",
    "tle": [
      "1 58053C 23158C   26027.49284722  .00004858  00000+0  35865-3 0   271",
      "2 58053  43.0024 254.4146 0001369 269.1184  10.5315 15.02507634    11"
    ]
  },
  "58054": {
    "noradId": "58054",
    "tle": [
      "1 58054C 23158D   26027.49006944  .00004578  00000+0  33782-3 0   275",
      "2 58054  43.0025 254.3619 0001254 262.4382  38.1865 15.02526762    15"
    ]
  },
  "58055": {
    "noradId": "58055",
    "tle": [
      "1 58055C 23158E   26027.49354167  .00006747  00000+0  49788-3 0   272",
      "2 58055  43.0024 254.1263 0001010 235.6048 173.9848 15.02524222    17"
    ]
  },
  "58056": {
    "noradId": "58056",
    "tle": [
      "1 58056C 23158F   26027.48868056  .00006811  00000+0  50248-3 0   274",
      "2 58056  43.0023 254.2825 0001285 262.6253  66.4267 15.02534694    19"
    ]
  },
  "58057": {
    "noradId": "58057",
    "tle": [
      "1 58057C 23158G   26027.48868056  .00003513  00000+0  25924-3 0   274",
      "2 58057  43.0020 254.3273 0001412 261.0065  50.1152 15.02531900    11"
    ]
  },
  "58058": {
    "noradId": "58058",
    "tle": [
      "1 58058C 23158H   26027.48868056  .00006334  00000+0  46747-3 0   275",
      "2 58058  43.0023 254.2405 0001372 261.0697  86.1342 15.02522925    14"
    ]
  },
  "58059": {
    "noradId": "58059",
    "tle": [
      "1 58059C 23158J   26027.49423611  .00007377  00000+0  54445-3 0   273",
      "2 58059  43.0016 254.0824 0001248 247.2618 184.1105 15.02520828    17"
    ]
  },
  "58060": {
    "noradId": "58060",
    "tle": [
      "1 58060C 23158K   26027.49284722  .00005733  00000+0  42304-3 0   278",
      "2 58060  43.0017 254.5907 0001361 264.4522 303.0275 15.02524415    14"
    ]
  },
  "58061": {
    "noradId": "58061",
    "tle": [
      "1 58061C 23158L   26027.49423611  .00009993  00000+0  73733-3 0   273",
      "2 58061  43.0015 228.7349 0001140 255.8621 190.2404 15.02525698    19"
    ]
  },
  "58062": {
    "noradId": "58062",
    "tle": [
      "1 58062C 23158M   26027.49493056  .00005409  00000+0  39926-3 0   278",
      "2 58062  43.0021 253.9893 0001388 264.0504 207.1506 15.02513457    18"
    ]
  },
  "58063": {
    "noradId": "58063",
    "tle": [
      "1 58063C 23158N   26027.49076389  .00005822  00000+0  42962-3 0   278",
      "2 58063  43.0021 253.8851 0001067 260.7170 242.0174 15.02524804    15"
    ]
  },
  "58064": {
    "noradId": "58064",
    "tle": [
      "1 58064C 23158P   26027.48937500 -.00011313  00000+0 -83468-3 0   279",
      "2 58064  43.0022 254.0641 0001370 266.2758 156.8028 15.02549723    14"
    ]
  },
  "58065": {
    "noradId": "58065",
    "tle": [
      "1 58065C 23158Q   26027.49076389  .00005330  00000+0  39332-3 0   271",
      "2 58065  43.0024 254.4014 0001361 262.9179  23.4374 15.02523227    19"
    ]
  },
  "58066": {
    "noradId": "58066",
    "tle": [
      "1 58066C 23158R   26027.49076389 -.00001133  00000+0 -83632-4 0   274",
      "2 58066  43.0019 253.7974 0001382 266.8723 272.0559 15.02504055    17"
    ]
  },
  "58067": {
    "noradId": "58067",
    "tle": [
      "1 58067C 23158S   26027.48937500 -.00016905  00000+0 -12469-2 0   276",
      "2 58067  43.0017 254.5787 0001336 266.5044 294.1413 15.02566026    19"
    ]
  },
  "58068": {
    "noradId": "58068",
    "tle": [
      "1 58068C 23158T   26027.49354167  .00005049  00000+0  37259-3 0   270",
      "2 58068  43.0016 253.9548 0001400 263.2631 218.4647 15.02523394    14"
    ]
  },
  "58069": {
    "noradId": "58069",
    "tle": [
      "1 58069C 23158U   26027.49354167 -.00020815  00000+0 -75371-3 0   278",
      "2 58069  43.0017 117.4833 0001458 255.2517   0.8832 15.27608474    13"
    ]
  },
  "58070": {
    "noradId": "58070",
    "tle": [
      "1 58070C 23158V   26027.49493056 -.00004673  00000+0 -34500-3 0   274",
      "2 58070  43.0017 253.9026 0001343 262.7349 244.6557 15.02515179    18"
    ]
  },
  "58071": {
    "noradId": "58071",
    "tle": [
      "1 58071C 23158W   26027.49284722  .00436670  00000+0  58578-2 0   277",
      "2 58071  42.9922 332.2814 0023221 174.5757 185.2503 15.56281376    19"
    ]
  },
  "58072": {
    "noradId": "58072",
    "tle": [
      "1 58072C 23158X   26027.49006944 -.00009789  00000+0 -72223-3 0   279",
      "2 58072  43.0000 253.8392 0001275 268.0926 248.9109 15.02546596    18"
    ]
  },
  "58075": {
    "noradId": "58075",
    "tle": [
      "1 58075C 23160A   26027.49423611 -.00005113  00000+0 -37735-3 0   275",
      "2 58075  43.0029 304.4122 0001225 267.0846 231.7724 15.02532787    11"
    ]
  },
  "58076": {
    "noradId": "58076",
    "tle": [
      "1 58076C 23160B   26027.49215278 -.00001443  00000+0 -10645-3 0   277",
      "2 58076  43.0024 303.6874 0001188 268.2343 165.8876 15.02537612    12"
    ]
  },
  "58077": {
    "noradId": "58077",
    "tle": [
      "1 58077C 23160C   26027.49006944 -.00006507  00000+0 -48000-3 0   278",
      "2 58077  43.0026 304.3494 0001315 269.7281 242.6056 15.02550294    15"
    ]
  },
  "58078": {
    "noradId": "58078",
    "tle": [
      "1 58078C 23160D   26027.49145833 -.00023969  00000+0 -17697-2 0   278",
      "2 58078  43.0032 304.4483 0001405 262.2281 203.6361 15.02537072    15"
    ]
  }
}